NORAD_CAT_ID,OBJECT_NAME,OBJECT_TYPE,EPOCH,MEAN_MOTION,ECCENTRICITY,INCLINATION,RA_OF_ASC_NODE,ARG_OF_PERICENTER,MEAN_ANOMALY,BSTAR,MEAN_MOTION_DOT,MEAN_MOTION_DDOT,TLE_LINE0,TLE_LINE1,TLE_LINE2,SEMIMAJOR_AXIS,PERIOD,APOGEE,PERIGEE,DECAYED
49741.0,STARLINK-3244,PAYLOAD,2024-06-24 21:27:46,15.08856006,0.0001733,53.2174,64.9678,134.8074,225.3059,-0.00018546,-3.24e-05,0.0,0 STARLINK-3244,1 49741U 21115T   24176.89428796 -.00003240  00000-0 -18546-3 0  9996,2 49741  53.2174  64.9678 0001733 134.8074 225.3059 15.08856006141517,6917.831,95.437,540.895,538.498,0.0
49741.0,STARLINK-3244,PAYLOAD,2024-06-24 23:03:09,15.08845505,0.0001474,53.2183,64.6699,114.0196,246.095,-1.1228e-05,-4.67e-06,0.0,0 STARLINK-3244,1 49741U 21115T   24176.96052931 -.00000467  00000-0 -11228-4 0  9997,2 49741  53.2183  64.6699 0001474 114.0196 246.0950 15.08845505142630,6917.864,95.437,540.748,538.709,0.0
49741.0,STARLINK-3244,PAYLOAD,2024-06-25 22:53:58,15.08766862,0.0001899,53.2193,60.208,100.4636,259.6571,0.0010926,0.00017109,0.0,0 STARLINK-3244,1 49741U 21115T   24177.95414940  .00017109  00000-0  10926-2 0  9990,2 49741  53.2193  60.2080 0001899 100.4636 259.6571 15.08766862141676,6918.104,95.442,541.283,538.655,0.0
49741.0,STARLINK-3244,PAYLOAD,2024-06-26 22:44:44,15.08838795,0.0001604,53.218,55.7537,72.6557,287.4611,3.8506e-05,3.25e-06,0.0,0 STARLINK-3244,1 49741U 21115T   24178.94773433  .00000325  00000-0  38506-4 0  9993,2 49741  53.2180  55.7537 0001604  72.6557 287.4611 15.08838795141820,6917.884,95.438,540.859,538.639,0.0
49741.0,STARLINK-3244,PAYLOAD,2024-06-27 03:30:52,15.08846487,0.0001133,53.2185,54.8567,97.2884,262.8237,0.00010567,1.395e-05,0.0,0 STARLINK-3244,1 49741U 21115T   24179.14644520  .00001395  00000-0  10567-3 0  9994,2 49741  53.2185  54.8567 0001133  97.2884 262.8237 15.08846487142965,6917.861,95.437,540.509,538.942,0.0
49741.0,STARLINK-3244,PAYLOAD,2024-06-27 21:00:08,15.08832634,0.0001403,53.2177,51.588,83.416,276.6992,-3.7005e-05,-8.77e-06,0.0,0 STARLINK-3244,1 49741U 21115T   24179.87510236 -.00000877  00000-0 -37005-4 0  9993,2 49741  53.2177  51.5880 0001403  83.4160 276.6992 15.08832634143075,6917.903,95.438,540.738,538.797,0.0
49741.0,STARLINK-3244,PAYLOAD,2024-06-27 22:35:31,15.08834666,0.0001359,53.2176,51.2943,90.5352,269.5796,-2.4915e-05,-6.84e-06,0.0,0 STARLINK-3244,1 49741U 21115T   24179.94134082 -.00000684  00000-0 -24915-4 0  9994,2 49741  53.2176  51.2943 0001359  90.5352 269.5796 15.08834666141970,6917.897,95.438,540.702,538.822,0.0
49741.0,STARLINK-3244,PAYLOAD,2024-06-28 08:07:50,15.08840943,0.0001339,53.2173,49.5086,88.4144,271.7001,6.0246e-05,6.71e-06,0.0,0 STARLINK-3244,1 49741U 21115T   24180.33877553  .00000671  00000-0  60246-4 0  9997,2 49741  53.2173  49.5086 0001339  88.4144 271.7001 15.08840943143148,6917.878,95.437,540.669,538.816,0.0
49741.0,STARLINK-3244,PAYLOAD,2024-06-28 20:50:54,15.08852646,0.0001227,53.2152,47.1221,68.4902,291.6221,8.9437e-05,1.136e-05,0.0,0 STARLINK-3244,1 49741U 21115T   24180.86868645  .00001136  00000-0  89437-4 0  9997,2 49741  53.2152  47.1221 0001227  68.4902 291.6221 15.08852646143223,6917.842,95.437,540.556,538.858,0.0
49741.0,STARLINK-3244,PAYLOAD,2024-06-28 22:26:16,15.0886755,0.0001817,53.2177,46.8284,48.3344,311.7803,0.00022153,3.242e-05,0.0,0 STARLINK-3244,1 49741U 21115T   24180.93491511  .00003242  00000-0  22153-3 0  9990,2 49741  53.2177  46.8284 0001817  48.3344 311.7803 15.08867550143238,6917.796,95.436,540.918,538.404,0.0
49741.0,STARLINK-3244,PAYLOAD,2024-06-29 14:20:10,15.0883029,0.0001107,53.2165,43.857,75.3634,284.7481,0.00013383,1.842e-05,0.0,0 STARLINK-3244,1 49741U 21115T   24181.59734286  .00001842  00000-0  13383-3 0  9991,2 49741  53.2165  43.8570 0001107  75.3634 284.7481 15.08830290142224,6917.91,95.438,540.541,539.009,0.0
49741.0,STARLINK-3244,PAYLOAD,2024-06-29 19:06:19,15.08831615,0.0001017,53.2152,42.96,61.4543,298.6552,-0.00011226,-2.073e-05,0.0,0 STARLINK-3244,1 49741U 21115T   24181.79606080 -.00002073  00000-0 -11226-3 0  9996,2 49741  53.2152  42.9600 0001017  61.4543 298.6552 15.08831615143360,6917.906,95.438,540.475,539.067,0.0
49741.0,STARLINK-3244,PAYLOAD,2024-06-29 22:17:06,15.08829809,0.0001017,53.2159,42.3656,87.8742,272.2366,-0.00013524,-2.439e-05,0.0,0 STARLINK-3244,1 49741U 21115T   24181.92854179 -.00002439  00000-0 -13524-3 0  9994,2 49741  53.2159  42.3656 0001017  87.8742 272.2366 15.08829809142277,6917.912,95.438,540.48,539.073,0.0
49741.0,STARLINK-3244,PAYLOAD,2024-06-30 14:10:57,15.08829687,9.74e-05,53.2163,39.3918,93.3009,266.8094,-7.644e-05,-1.504e-05,0.0,0 STARLINK-3244,1 49741U 21115T   24182.59094637 -.00001504  00000-0 -76440-4 0  9992,2 49741  53.2163  39.3918 0000974  93.3009 266.8094 15.08829687142370,6917.912,95.438,540.451,539.103,0.0
49741.0,STARLINK-3244,PAYLOAD,2024-06-30 20:32:29,15.08848016,0.0001228,53.2176,38.2073,89.2274,270.8859,1.6873e-05,-1.9e-07,0.0,0 STARLINK-3244,1 49741U 21115T   24182.85589825 -.00000019  00000-0  16873-4 0  9992,2 49741  53.2176  38.2073 0001228  89.2274 270.8859 15.08848016143524,6917.856,95.437,540.57,538.871,0.0
49741.0,STARLINK-3244,PAYLOAD,2024-06-30 22:07:52,15.08852466,0.0001338,53.2174,37.9088,73.9624,286.1516,9.5838e-05,1.238e-05,0.0,0 STARLINK-3244,1 49741U 21115T   24182.92213614  .00001238  00000-0  95838-4 0  9991,2 49741  53.2174  37.9088 0001338  73.9624 286.1516 15.08852466142427,6917.842,95.437,540.633,538.782,0.0
49741.0,STARLINK-3244,PAYLOAD,2024-07-01 14:01:44,15.08836786,0.0001174,53.2168,34.934,97.524,262.5885,0.00029101,4.346e-05,0.0,0 STARLINK-3244,1 49741U 21115T   24183.58454545  .00004346  00000-0  29101-3 0  9996,2 49741  53.2168  34.9340 0001174  97.5240 262.5885 15.08836786142527,6917.89,95.438,540.567,538.943,0.0
49741.0,STARLINK-3244,PAYLOAD,2024-07-01 20:23:16,15.08844875,0.0001279,53.2167,33.7458,89.6171,270.4968,0.00038037,5.772e-05,0.0,0 STARLINK-3244,1 49741U 21115T   24183.84950205  .00005772  00000-0  38037-3 0  9991,2 49741  53.2167  33.7458 0001279  89.6171 270.4968 15.08844875143679,6917.865,95.437,540.615,538.846,0.0
49741.0,STARLINK-3244,PAYLOAD,2024-07-02 07:30:59,15.08839053,0.000159,53.216,31.6603,103.4351,256.6818,9.8474e-05,1.28e-05,0.0,0 STARLINK-3244,1 49741U 21115T   24184.31318443  .00001280  00000-0  98474-4 0  9998,2 49741  53.2160  31.6603 0001590 103.4351 256.6818 15.08839053143742,6917.883,95.438,540.848,538.648,0.0
49741.0,STARLINK-3244,PAYLOAD,2024-07-02 20:14:03,15.08845017,0.0001138,53.2175,29.2846,89.8819,270.2303,1.0305e-05,-1.24e-06,0.0,0 STARLINK-3244,1 49741U 21115T   24184.84310149 -.00000124  00000-0  10305-4 0  9995,2 49741  53.2175  29.2846 0001138  89.8819 270.2303 15.08845017142718,6917.865,95.437,540.517,538.943,0.0
49741.0,STARLINK-3244,PAYLOAD,2024-07-03 13:43:18,15.08844766,0.0001089,53.2168,26.0149,86.8442,273.2675,0.00013365,1.84e-05,0.0,0 STARLINK-3244,1 49741U 21115T   24185.57174058  .00001840  00000-0  13365-3 0  9996,2 49741  53.2168  26.0149 0001089  86.8442 273.2675 15.08844766143935,6917.866,95.437,540.484,538.977,0.0
49741.0,STARLINK-3244,PAYLOAD,2024-07-03 20:04:50,15.08851507,0.0001142,53.2178,24.826,79.432,280.6801,0.00027725,4.129e-05,0.0,0 STARLINK-3244,1 49741U 21115T   24185.83669794  .00004129  00000-0  27725-3 0  9999,2 49741  53.2178  24.8260 0001142  79.4320 280.6801 15.08851507142864,6917.845,95.437,540.5,538.92,0.0
49741.0,STARLINK-3244,PAYLOAD,2024-07-04 13:34:05,15.08839764,8.52e-05,53.2165,21.5551,56.694,303.4133,0.00013486,1.859e-05,0.0,0 STARLINK-3244,1 49741U 21115T   24186.56534336  .00001859  00000-0  13486-3 0  9999,2 49741  53.2165  21.5551 0000852  56.6940 303.4133 15.08839764144088,6917.881,95.438,540.336,539.157,0.0
49741.0,STARLINK-3244,PAYLOAD,2024-07-04 19:55:38,15.08844543,0.0001047,53.2173,20.3658,78.4754,281.6356,0.00018225,2.614e-05,0.0,0 STARLINK-3244,1 49741U 21115T   24186.83030148  .00002614  00000-0  18225-3 0  9997,2 49741  53.2173  20.3658 0001047  78.4754 281.6356 15.08844543143011,6917.867,95.437,540.456,539.007,0.0
49741.0,STARLINK-3244,PAYLOAD,2024-07-05 05:27:56,15.08843866,0.0001027,53.2172,18.5827,80.0986,280.0122,0.00013566,1.872e-05,0.0,0 STARLINK-3244,1 49741U 21115T   24187.22774137  .00001872  00000-0  13566-3 0  9992,2 49741  53.2172  18.5827 0001027  80.0986 280.0122 15.08843866143078,6917.869,95.437,540.444,539.023,0.0
49741.0,STARLINK-3244,PAYLOAD,2024-07-05 19:46:24,15.08846334,0.0001076,53.2175,15.907,86.1428,273.9688,0.00016117,2.279e-05,0.0,0 STARLINK-3244,1 49741U 21115T   24187.82389990  .00002279  00000-0  16117-3 0  9994,2 49741  53.2175  15.9070 0001076  86.1428 273.9688 15.08846334144278,6917.861,95.437,540.47,538.982,0.0
49741.0,STARLINK-3244,PAYLOAD,2024-07-05 21:21:47,15.08848145,0.0001119,53.2179,15.6091,82.838,277.2739,0.00019348,2.793e-05,0.0,0 STARLINK-3244,1 49741U 21115T   24187.89013812  .00002793  00000-0  19348-3 0  9998,2 49741  53.2179  15.6091 0001119  82.8380 277.2739 15.08848145143174,6917.855,95.437,540.495,538.946,0.0
49741.0,STARLINK-3244,PAYLOAD,2024-07-06 05:18:43,15.08844706,0.0001129,53.218,14.1223,85.9139,274.1983,0.00013166,1.808e-05,0.0,0 STARLINK-3244,1 49741U 21115T   24188.22133875  .00001808  00000-0  13166-3 0  9996,2 49741  53.2180  14.1223 0001129  85.9139 274.1983 15.08844706143226,6917.866,95.437,540.512,538.95,0.0
49741.0,STARLINK-3244,PAYLOAD,2024-07-06 18:01:49,15.08831717,0.0001453,53.2195,11.7474,95.0817,265.0341,-9.2485e-05,-1.759e-05,0.0,0 STARLINK-3244,1 49741U 21115T   24188.75126684 -.00001759  00000-0 -92485-4 0  9993,2 49741  53.2195  11.7474 0001453  95.0817 265.0341 15.08831717144415,6917.906,95.438,540.776,538.766,0.0
49741.0,STARLINK-3244,PAYLOAD,2024-07-06 21:12:35,15.08837306,0.0001303,53.2182,11.1492,88.2588,271.8553,3.1498e-05,2.13e-06,0.0,0 STARLINK-3244,1 49741U 21115T   24188.88374552  .00000213  00000-0  31498-4 0  9995,2 49741  53.2182  11.1492 0001303  88.2588 271.8553 15.08837306143327,6917.889,95.438,540.655,538.852,0.0
